[{"OBJECT_NAME":"STARLINK-3117","OBJECT_ID":"2021-104AD","EPOCH":"2026-03-09T16:53:19.007808","MEAN_MOTION":15.08831853,"ECCENTRICITY":0.00012339,"INCLINATION":53.2181,"RA_OF_ASC_NODE":209.0594,"ARG_OF_PERICENTER":85.8905,"MEAN_ANOMALY":274.2228,"EPHEMERIS_TYPE":0,"CLASSIFICATION_TYPE":"U","NORAD_CAT_ID":49435,"ELEMENT_SET_NO":999,"REV_AT_EPOCH":23891,"BSTAR":1.8014244e-5,"MEAN_MOTION_DOT":-1.0e-8,"MEAN_MOTION_DDOT":0},{"OBJECT_NAME":"FENGYUN 1C DEB","OBJECT_ID":"1999-025QY","EPOCH":"2026-03-09T17:49:58.428768","MEAN_MOTION":14.85185603,"ECCENTRICITY":0.01589258,"INCLINATION":99.2245,"RA_OF_ASC_NODE":8.2998,"ARG_OF_PERICENTER":58.4769,"MEAN_ANOMALY":303.1855,"EPHEMERIS_TYPE":0,"CLASSIFICATION_TYPE":"U","NORAD_CAT_ID":30095,"ELEMENT_SET_NO":999,"REV_AT_EPOCH":624,"BSTAR":0.002192592,"MEAN_MOTION_DOT":0.0002358,"MEAN_MOTION_DDOT":0}]
